[{"OBJECT_NAME":"TEMPSAT 1","OBJECT_ID":"1965-065E","EPOCH":"2026-03-09T23:04:19.834752","MEAN_MOTION":13.33589233,"ECCENTRICITY":0.00702466,"INCLINATION":89.9938,"RA_OF_ASC_NODE":212.5862,"ARG_OF_PERICENTER":165.9273,"MEAN_ANOMALY":317.9391,"EPHEMERIS_TYPE":0,"CLASSIFICATION_TYPE":"U","NORAD_CAT_ID":1512,"ELEMENT_SET_NO":999,"REV_AT_EPOCH":94682,"BSTAR":8.3668831e-5,"MEAN_MOTION_DOT":5.1e-7,"MEAN_MOTION_DDOT":0},{"OBJECT_NAME":"HULIANWANG DIGUI-10","OBJECT_ID":"2024-240K","EPOCH":"2026-03-09T21:27:27.603072","MEAN_MOTION":13.24422131,"ECCENTRICITY":0.00020417,"INCLINATION":86.5069,"RA_OF_ASC_NODE":16.8601,"ARG_OF_PERICENTER":89.0976,"MEAN_ANOMALY":271.0392,"EPHEMERIS_TYPE":0,"CLASSIFICATION_TYPE":"U","NORAD_CAT_ID":62332,"ELEMENT_SET_NO":999,"REV_AT_EPOCH":5949,"BSTAR":0.00012776457,"MEAN_MOTION_DOT":6.9e-7,"MEAN_MOTION_DDOT":0}]
